#dP2024  1  2  0  0  0.00000000     289 ORBIT ITRF  BHN ESOC                    
## 2295 172800.00000000   300.00000000 60311 0.0000000000000                    
+  116   G13G22G21G07G05G20G31G17G15G16G29G12G19G02G25G01G30                    
+        G24G06G09G03G32G26G08G10G04G18G23G14G11G28R09R11R22                    
+        R20R19R13R01R08R03R07R02R17R14R18R21R05R15R12R04R24                    
+        R16E11E12E19E18E14E26E24E30E08E09E02E07E03E04E05E21                    
+        E25E27E31E36E13E15E33E34E10C11C12C14C19C20C27C28C22                    
+        C21C29C30C23C24C26C25C32C33C35C34C36C37C46C45C44C43                    
+        C41C42C06C08C09C10C13C16C38C39C40J02J03J04  0  0  0                    
++         4  4  4  4  5  5  4  4  4  5  5  5  5  4  4  4  5                    
++         4  4  4  4  4  4  4  4  4  4  4  4  4  4  4  6  5                    
++         7  5  5  7  4  5  6  6  5  5  4  5  5  5  5  6  5                    
++         6  5  4  5  5  5  4  4  5  5  4  5  5  4  4  4  4                    
++         5  5  4  5  4  4  4  5  4  4  4  5  5  5  5  5  5                    
++         5  5  4  4  4  5  5  5  5  4  5  5  4  5  5  5  5                    
++         5  5  6  7  6  5  7  6  8  7  8  6  5  6  0  0  0                    
%c M  cc GPS ccc cccc cccc cccc cccc ccccc ccccc ccccc ccccc                    
%c cc cc ccc ccc cccc cccc cccc cccc ccccc ccccc ccccc ccccc                    
%f  0.0000000  0.000000000  0.00000000000  0.000000000000000                    
%f  0.0000000  0.000000000  0.00000000000  0.000000000000000                    
%i    0    0    0    0      0      0      0      0         0                    
%i    0    0    0    0      0      0      0      0         0                    
/* CCCCCCCCCCCCCCCCCCCCCCCCCCCCCCCCCCCCCCCCCCCCCCCCCCCCCCCCCCCCCCCCCCCCCCCCCCCCC
/* CCCCCCCCCCCCCCCCCCCCCCCCCCCCCCCCCCCCCCCCCCCCCCCCCCCCCCCCCCCCCCCCCCCCCCCCCCCCC
/* CCCCCCCCCCCCCCCCCCCCCCCCCCCCCCCCCCCCCCCCCCCCCCCCCCCCCCCCCCCCCCCCCCCCCCCCCCCCC
/* PCV:IGS        OL/AL:EOT11A   NONE     YN ORB:CoN CLK:CoN                    
*  2024  1  2  0 10  0.00000000                                                 
PG13 -22785.236500 -13865.607429   -837.103035    611.700833                    
PG22    908.592621 -17520.500115  20460.113049     55.529246                    
PG21  16271.294823   5070.402659  21084.690030    139.736983                    
PG07   6552.025846 -21559.041719 -13193.697908    -26.882763                    
PG05 -19707.789101    611.405115 -18016.864522   -156.377332                    
PG20 -10850.429086 -10928.457078 -21586.012175    393.643826                    
PG31  10269.335568  21844.278489 -10810.458160   -227.037815                    
PG17  -1467.086714 -16644.008141  21044.597550    720.834578                    
PG15 -25815.899647  -1699.136444   5984.962104    112.960546                    
PG16  15964.393083   6718.133653 -20583.573728   -392.583513                    
PG29 -14186.447972   8713.940941 -20763.830777   -609.204790                    
PG12 -23479.462635   8770.802004   8395.996350   -463.598974                    
PG19 -11364.319731 -18228.683889  15659.106025    420.734461                    
PG02  15501.993070   -438.187563  22087.084941   -507.032787                    
PG25 -19683.664556  17539.177426  -1870.395372    483.745782                    
PG01  13157.677316  -7789.213547  21319.212303    165.069093                    
PG30   -525.447122 -26083.789181  -4027.193100   -450.487599                    
PG24 -15988.296865   -590.470446  20838.183540   -405.640686                    
PG06  -6439.832489 -25226.366214  -4894.830797    458.960318                    
PG09  12508.144765 -10931.651083 -20823.187534     45.457541                    
PG03  22762.574025 -10291.874895   8708.333008     97.104132                    
PG32   6514.114277  17170.556552  19452.399107   -601.694545                    
PG26   8263.206042  13801.098233 -21242.314596    204.143308                    
PG08  25515.389720   4298.195904   6814.948003   -159.991535                    
PG10  -3707.871364  18641.675273  18609.087199    -67.665043                    
PG04  22167.415409  -1244.967563 -14664.383001    255.198731                    
PG18  -5894.965805  22527.191920 -12587.632609   -521.670947                    
PG23 -14837.559325  20037.080544   8896.474941    127.225881                    
PG14   7647.642710 -19809.036466  15865.179339    287.258560                    
PG11 -11859.609557 -18714.539123 -14658.795291   -524.072716                    
PG28   5849.473653  25840.187949  -1922.396534    -86.480780                    
PR09   1022.953879  17609.373559 -18447.037835    162.023647                    
PR11  15589.415355 -13362.814815 -15120.036429   -224.951171                    
PR22  10790.350055  -2789.770605  22976.593223    101.101350                    
PR20  10589.543102  23056.167087  -2830.474100   -106.154682                    
PR19  -2136.854123  15367.450277 -20239.303253   -260.542281                    
PR13    966.335377 -18895.907981  17090.528578    -42.903623                    
PR01   8074.313428 -10611.646517 -21743.528551     73.508662                    
PR08  23338.152772  -4442.629848  -9281.663810    -73.920030                    
PR03 -24016.886220  -3494.405831  -7700.000318     91.991448                    
PR07  24368.822623   3183.122468   6979.549408     72.631819                    
PR02 -11074.795406  -9728.449125 -20753.189544    -22.406518                    
PR17 -15668.838314 -13620.363337 -14832.156687     48.644008                    
PR14 -11406.437171  -2190.410885  22716.097427     25.834302                    
PR18 -10818.170783   1917.534765 -22994.133041    119.909847                    
PR21  15480.057829  13324.713287  15270.790917    -65.674311                    
PR05 -10242.231780   9761.023949  21227.285963    124.697325                    
PR15 -15806.036453  14363.588435  13960.773832     83.418507                    
PR12  10940.696313 -22803.895406   3400.934789     35.102845                    
PR04 -23403.955690   4193.298565   9240.087170    217.768131                    
PR24 -11692.870567 -22565.951184   2283.618137    -38.290425                    
PR16 -10994.206388  22829.269159  -3072.972417     22.068042                    
PE11   4261.049134 -26740.931276  11938.911259   3279.457534                    
PE12  14361.224531  -9741.091886  23982.142221   -844.565020                    
PE19  26703.567252  12623.764717   1993.733427   -896.105358                    
PE18 -27316.804024 -14898.191437   1553.454994    162.868234                    
PE14  13315.539692  18392.095254 -12983.464992     -1.412222                    
PE26   8129.901727  27644.387455   6783.497933    327.061749                    
PE24  15515.971323 -22181.199271  11990.741888   -518.830499                    
PE30 -25403.248974  13810.397501   6271.549223   -790.362252                    
PE08 -24018.356999   2873.338793  17060.386721   -201.445378                    
PE09   6542.039025 -15500.110946 -24356.069515   -284.398623                    
PE02 -20414.188060  -2863.420233  21225.129038     91.571395                    
PE07  -6478.429318  15680.238691  24256.391215    -96.184183                    
PE03 -27444.375886 -11096.556359    265.712603    -84.168784                    
PE04  23680.333357  -3429.914535 -17425.502941   -293.869821                    
PE05 -15208.267002 -19002.270304 -16844.575744   4706.272629                    
PE21   4312.883398  17238.391520 -23676.899723   -571.791035                    
PE25  -3901.249768 -17466.815727  23578.279116     -1.113204                    
PE27 -15046.469276  22252.895764 -12418.256747   -238.917110                    
PE31  25324.032608 -14100.981485  -6030.388569    -12.891796                    
PE36  -7705.080219 -27904.463291  -6144.937103   -165.984413                    
PE13  -4625.884568  26395.060654 -12569.780789    -19.799652                    
PE15 -14428.221245   9177.891323 -24148.796260    -77.899464                    
PE33  15526.258005  13755.605184  21124.316133      5.245974                    
PE34 -15659.212061 -13141.834804 -21405.715766    -86.653742                    
PE10  10320.659317 -19293.160919  19939.818778   -590.915849                    
PC11  -3831.323310 -22261.851785  16467.963049    336.750459                    
PC12  12340.488044  -9364.620707  23256.847918    808.548193                    
PC14   4673.455522 -16239.152317 -22185.716584   -122.927442                    
PC19   6351.395275  14580.644114  22951.854780   -943.544956                    
PC20 -13383.112738  15549.029938  18938.476019    -26.085086                    
PC27 -18192.087013   1358.288373 -21129.788507    250.712860                    
PC28 -21578.792819 -14422.335895 -10243.270956    189.979539                    
PC22  23585.746181   5187.213579  13963.737102   -163.728548                    
PC21  26804.042582  -7109.727424  -3021.370381   -965.361614                    
PC29  12575.040699  23190.971925  -9106.352595    222.504827                    
PC30  -4853.026366  17085.449840 -21533.358457    -12.596820                    
PC23 -13069.744792 -10976.386687  22073.812482   -795.488078                    
PC24  12231.274764 -24657.595404  -4719.320055    749.708955                    
PC26  17672.455459 -10954.035697 -18651.883288   -228.753155                    
PC25  -1656.550141 -24773.137948  12746.957517    291.956829                    
PC32 -26782.276217   7287.571776   2948.307797   -548.894238                    
PC33  -6359.931281 -14579.851061 -22927.103677   -942.124145                    
PC35  22145.005485  13604.514227  10205.413017    466.982478                    
PC34   3527.315122 -18056.369747  20967.880964    337.943762                    
PC36    567.085079  25084.925045 -12186.421944    -69.145842                    
PC37 -17914.445539   9900.747485  18956.882681   -931.418931                    
PC46 -11662.525220  25050.238190   3713.828716   -112.300207                    
PC45  13168.876336  10499.964545 -22257.053943    -59.868060                    
PC44  18347.921357  -1913.247440  20938.056425    340.992554                    
PC43 -11791.290740 -23269.426807   9873.823370     54.689095                    
PC41 -23147.841770  -5571.866571 -14509.288584   -876.756240                    
PC42  14905.734010 -15266.653777 -17932.490016   -471.663740                    
PC06  -2785.667924  35701.014013  22515.079559     24.424887                    
PC08 -16777.071658  36276.777842  13037.029418    141.349043                    
PC09   4178.086799  40135.860950  13668.074427   -296.688908                    
PC10  -3589.007975  27255.149356 -31663.042371    142.347920                    
PC13 -11133.803001  36424.298817  17954.689089    402.774454                    
PC16  -3037.228102  35186.914461  23528.355020   -258.350286                    
PC38 -20644.098716  36404.269264   4431.608136    127.803177                    
PC39  -6389.115869  30846.616931  28172.440486     -6.447898                    
PC40 -16619.232402  20182.175386 -33130.675529    -50.324870                    
PJ02 -36421.804873  20480.726454  -1243.126172     -0.898756                    
PJ03 -18261.035418  26839.842044 -22171.776622     -0.109105                    
PJ04 -27289.707959  30067.553666  17636.738955     75.675678                    
EOF                                                                             
